{
  "norad_id": 62211,
  "name": "STARLINK-32642",
  "history": [
    {
      "epoch": "2026-03-28T21:51:46.722816Z",
      "apogee_km": 483.74005044785736,
      "perigee_km": 482.3040098628453,
      "latitude_deg": 3.947844875247279e-05,
      "longitude_deg": 7.6687471410569525,
      "height_km": 482.4226707674221,
      "semi_major_axis_km": 6861.1590301553515,
      "eccentricity": 0.00010465,
      "inclination_deg": 43.0036,
      "raan_deg": 161.938,
      "arg_perigee_deg": 301.5849,
      "mean_anomaly_deg": 58.4901,
      "mean_motion_rev_day": 15.27589039
    },
    {
      "epoch": "2026-03-29T05:42:33.855840Z",
      "apogee_km": 483.79311261614566,
      "perigee_km": 482.2548403252222,
      "latitude_deg": -3.2459555142717835e-05,
      "longitude_deg": -112.19625834218083,
      "height_km": 482.69031899875483,
      "semi_major_axis_km": 6861.160976470684,
      "eccentricity": 0.0001121,
      "inclination_deg": 43.0016,
      "raan_deg": 160.0917,
      "arg_perigee_deg": 278.2458,
      "mean_anomaly_deg": 81.8266,
      "mean_motion_rev_day": 15.27588389
    },
    {
      "epoch": "2026-03-30T05:14:55.233312Z",
      "apogee_km": 485.2034153445411,
      "perigee_km": 480.80638394673406,
      "latitude_deg": 2.590268995016645e-07,
      "longitude_deg": -111.79131914197178,
      "height_km": 481.84995886749255,
      "semi_major_axis_km": 6861.141899645638,
      "eccentricity": 0.00032043,
      "inclination_deg": 43.0021,
      "raan_deg": 154.5524,
      "arg_perigee_deg": 295.114,
      "mean_anomaly_deg": 64.9379,
      "mean_motion_rev_day": 15.2759476
    },
    {
      "epoch": "2026-03-30T13:05:42.023328Z",
      "apogee_km": 483.8660308845401,
      "perigee_km": 482.1644651270353,
      "latitude_deg": 1.0746255177800845e-05,
      "longitude_deg": 128.34599667334174,
      "height_km": 482.6757372321502,
      "semi_major_axis_km": 6861.152248005787,
      "eccentricity": 0.000124,
      "inclination_deg": 43.0017,
      "raan_deg": 152.7069,
      "arg_perigee_deg": 277.8549,
      "mean_anomaly_deg": 82.2162,
      "mean_motion_rev_day": 15.27591304
    },
    {
      "epoch": "2026-03-30T20:56:29.056992Z",
      "apogee_km": 483.47017581259024,
      "perigee_km": 482.53088608460257,
      "latitude_deg": -2.8877166737252885e-05,
      "longitude_deg": 8.47954107410593,
      "height_km": 482.6659448775898,
      "semi_major_axis_km": 6861.137530948596,
      "eccentricity": 6.845e-05,
      "inclination_deg": 43.0035,
      "raan_deg": 150.8587,
      "arg_perigee_deg": 283.6774,
      "mean_anomaly_deg": 76.4001,
      "mean_motion_rev_day": 15.27596219
    },
    {
      "epoch": "2026-03-31T20:28:49.524672Z",
      "apogee_km": 483.6429937605353,
      "perigee_km": 482.39426343613104,
      "latitude_deg": -3.2378185276255733e-06,
      "longitude_deg": 8.888174607414992,
      "height_km": 482.5073553797631,
      "semi_major_axis_km": 6861.155628598332,
      "eccentricity": 9.1e-05,
      "inclination_deg": 43.0028,
      "raan_deg": 145.3193,
      "arg_perigee_deg": 297.4496,
      "mean_anomaly_deg": 62.6263,
      "mean_motion_rev_day": 15.27590175
    },
    {
      "epoch": "2026-04-01T20:01:10.494336Z",
      "apogee_km": 484.22853363722515,
      "perigee_km": 481.87102985901583,
      "latitude_deg": 6.056047191728499e-05,
      "longitude_deg": 9.296851395018553,
      "height_km": 482.7553671835455,
      "semi_major_axis_km": 6861.186781748121,
      "eccentricity": 0.0001718,
      "inclination_deg": 43.0025,
      "raan_deg": 139.782,
      "arg_perigee_deg": 273.485,
      "mean_anomaly_deg": 86.5806,
      "mean_motion_rev_day": 15.27579771
    },
    {
      "epoch": "2026-04-02T19:33:31.236768Z",
      "apogee_km": 483.1631383720887,
      "perigee_km": 482.73089007919225,
      "latitude_deg": -1.8189963760582802e-05,
      "longitude_deg": 9.702625107869917,
      "height_km": 482.53691892906187,
      "semi_major_axis_km": 6861.08401422564,
      "eccentricity": 3.15e-05,
      "inclination_deg": 43.0035,
      "raan_deg": 134.241,
      "arg_perigee_deg": 329.4277,
      "mean_anomaly_deg": 30.6556,
      "mean_motion_rev_day": 15.27614092
    },
    {
      "epoch": "2026-04-02T19:33:31.237632Z",
      "apogee_km": 483.1633442046086,
      "perigee_km": 482.73068424667235,
      "latitude_deg": -1.6972126344143446e-05,
      "longitude_deg": 9.702622796587114,
      "height_km": 482.5367417325268,
      "semi_major_axis_km": 6861.08401422564,
      "eccentricity": 3.153e-05,
      "inclination_deg": 43.0035,
      "raan_deg": 134.241,
      "arg_perigee_deg": 329.4277,
      "mean_anomaly_deg": 30.6556,
      "mean_motion_rev_day": 15.27614092
    }
  ]
}